STARLINK-36690
1 67913U 26036K   26061.16668981 -.01442779  00000+0 -57125-2 0  9990
2 67913  42.9952 295.8805 0001752 273.9872 276.4409 15.88630904  2434
